CENTISPACE-1 GROUP 05 O*
1 69636U 26138J   26184.59118249 -.00000410  00000+0 -12969-3 0  9996
2 69636  55.1394 220.5563 0008724 317.7455  42.2846 14.15847200  2319
VICTUS HAZE PUMA        
1 69646U 26142A   26184.66505231  .00000368  00000+0  19825-4 0  9990
2 69646  97.4480  82.1024 0025802 308.9584  50.9352 15.20705209  2171
HOKUSHIN-1              
1 69648U 98067YH  26183.66251443  .00023888  00000+0  41762-3 0  9995
2 69648  51.6306 223.4082 0006133 282.8611  77.1693 15.50501317  2056
STARLINK-37656          
1 69649U 26143A   26184.41675926 -.02381310  00000+0 -20230-1 0  9998
2 69649  97.2840 228.0869 0001685  93.9707 147.0328 15.73145236  3078
STARLINK-37646          
1 69650U 26143B   26184.41675926  .00072121  00000+0  37469-3 0  9997
2 69650  97.2839 228.1110 0001062  89.8985 203.1434 15.80785043  3075
STARLINK-37749          
1 69651U 26143C   26184.41675926  .00042871  00000+0  22373-3 0  9995
2 69651  97.2834 228.1159 0001200  79.4558 224.5312 15.80788808  3073
STARLINK-37819          
1 69652U 26143D   26184.41675926  .00063697  00000+0  33134-3 0  9992
2 69652  97.2833 228.1041 0001148  97.1780 179.0204 15.80784297  3070
STARLINK-37729          
1 69653U 26143E   26184.41675926  .00102126  00000+0  52868-3 0  9999
2 69653  97.2835 228.1144 0000680  93.3598 206.2189 15.80775064  3079
STARLINK-37838          
1 69654U 26143F   26184.41675926  .00102056  00000+0  52847-3 0  9999
2 69654  97.2834 228.1059 0001097  88.4621 191.8493 15.80769092  3070
STARLINK-37884          
1 69655U 26143G   26184.41675926  .00053773  00000+0  28006-3 0  9991
2 69655  97.2837 228.1256 0001021  92.0309 236.7973 15.80791441  3079
STARLINK-37876          
1 69656U 26143H   26184.41675926  .00092375  00000+0  47896-3 0  9991
2 69656  97.2835 228.1169 0000716 108.4774 198.2119 15.80768116  2974
STARLINK-37784          
1 69657U 26143J   26184.41675926  .00024092  00000+0  12628-3 0  9998
2 69657  97.2834 228.1173 0000978  95.5911 212.8975 15.80796640  2974
STARLINK-37851          
1 69658U 26143K   26184.41675926  .00069375  00000+0  36067-3 0  9995
2 69658  97.2838 228.1281 0001036  97.2825 236.8151 15.80779016  2967
STARLINK-37229          
1 69659U 26143L   26184.41675926  .00071989  00000+0  37398-3 0  9998
2 69659  97.2830 228.1090 0001361  81.0407 206.3401 15.80786442  3014
STARLINK-37556          
1 69660U 26143M   26184.41675926  .00028462  00000+0  14899-3 0  9999
2 69660  97.2832 228.1121 0001048  94.3529 203.5227 15.80794610  3018
STARLINK-37867          
1 69661U 26143N   26184.41675926  .00078232  00000+0  40626-3 0  9997
2 69661  97.2834 228.1334 0001220 106.8450 240.0744 15.80775504  2976
STARLINK-37852          
1 69662U 26143P   26184.41675926  .00066811  00000+0  34735-3 0  9992
2 69662  97.2836 228.1139 0000938  88.6306 212.2877 15.80786282  2977
STARLINK-37554          
1 69663U 26143Q   26184.41675926  .00062520  00000+0  32521-3 0  9997
2 69663  97.2838 228.1300 0001211  91.4844 247.6019 15.80788639  3018
STARLINK-37830          
1 69664U 26143R   26184.41675926  .00091390  00000+0  47382-3 0  9996
2 69664  97.2836 228.1154 0000688  97.9624 207.5820 15.80772806  2965
STARLINK-37837          
1 69665U 26143S   26184.41675926  .00054991  00000+0  28634-3 0  9992
2 69665  97.2842 228.1308 0000702  95.5985 247.2733 15.80792177  2973
STARLINK-37943          
1 69666U 26143T   26184.41675926  .00061013  00000+0  31750-3 0  9999
2 69666  97.2833 228.1269 0001363 114.6443 217.9794 15.80784578  2973
STARLINK-37941          
1 69667U 26143U   26184.41675926  .00068854  00000+0  35799-3 0  9997
2 69667  97.2835 228.1235 0001092 103.9881 220.4564 15.80778142  2979
STARLINK-37930          
1 69668U 26143V   26184.41675926  .00073549  00000+0  38221-3 0  9998
2 69668  97.2835 228.1261 0000822 110.3196 220.1587 15.80774749  2960
STARLINK-37945          
1 69669U 26143W   26184.41675926  .00055070  00000+0  28676-3 0  9991
2 69669  97.2835 228.1303 0000855  88.1341 252.2899 15.80791522  2979
STARLINK-37948          
1 69670U 26143X   26184.41675926 -.02431947  00000+0 -17310-1 0  9999
2 69670  97.2842 228.1646 0001530  85.2887 331.8519 15.77257958  2972
