OBJECT_NAME,OBJECT_ID,EPOCH,MEAN_MOTION,ECCENTRICITY,INCLINATION,RA_OF_ASC_NODE,ARG_OF_PERICENTER,MEAN_ANOMALY,EPHEMERIS_TYPE,CLASSIFICATION_TYPE,NORAD_CAT_ID,ELEMENT_SET_NO,REV_AT_EPOCH,BSTAR,MEAN_MOTION_DOT,MEAN_MOTION_DDOT
CENTISPACE-1 GROUP 05 OBJECT J,2026-138J,2026-07-03T14:11:18.167136,14.15847200,.00087248,55.1394,220.5563,317.7455,42.2846,0,U,69636,999,231,-.12968887E-3,-.41E-5,0
VICTUS HAZE PUMA,2026-142A,2026-07-03T15:57:40.519584,15.20705209,.0025802,97.4480,82.1024,308.9584,50.9352,0,U,69646,999,217,.19825095E-4,.368E-5,0
HOKUSHIN-1,1998-067YH,2026-07-02T15:54:01.246752,15.50501317,.0006133,51.6306,223.4082,282.8611,77.1693,0,U,69648,999,205,.41761761E-3,.23888E-3,0
STARLINK-37656,2026-143A,2026-07-03T10:00:08.000064,15.73145236,.00016859,97.2840,228.0869,93.9707,147.0328,0,U,69649,999,307,-.20230383E-1,-.238131E-1,0
STARLINK-37646,2026-143B,2026-07-03T10:00:08.000064,15.80785043,.00010622,97.2839,228.1110,89.8985,203.1434,0,U,69650,999,307,.37468659E-3,.72121E-3,0
STARLINK-37749,2026-143C,2026-07-03T10:00:08.000064,15.80788808,.00012007,97.2834,228.1159,79.4558,224.5312,0,U,69651,999,307,.22373356E-3,.42871E-3,0
STARLINK-37819,2026-143D,2026-07-03T10:00:08.000064,15.80784297,.00011487,97.2833,228.1041,97.1780,179.0204,0,U,69652,999,307,.3313423E-3,.63697E-3,0
STARLINK-37729,2026-143E,2026-07-03T10:00:08.000064,15.80775064,.00006806,97.2835,228.1144,93.3598,206.2189,0,U,69653,999,307,.52868362E-3,.102126E-2,0
STARLINK-37838,2026-143F,2026-07-03T10:00:08.000064,15.80769092,.00010975,97.2834,228.1059,88.4621,191.8493,0,U,69654,999,307,.52846869E-3,.102056E-2,0
STARLINK-37884,2026-143G,2026-07-03T10:00:08.000064,15.80791441,.00010213,97.2837,228.1256,92.0309,236.7973,0,U,69655,999,307,.28006054E-3,.53773E-3,0
STARLINK-37876,2026-143H,2026-07-03T10:00:08.000064,15.80768116,.00007165,97.2835,228.1169,108.4774,198.2119,0,U,69656,999,297,.47896304E-3,.92375E-3,0
STARLINK-37784,2026-143J,2026-07-03T10:00:08.000064,15.80796640,.00009781,97.2834,228.1173,95.5911,212.8975,0,U,69657,999,297,.12628388E-3,.24092E-3,0
STARLINK-37851,2026-143K,2026-07-03T10:00:08.000064,15.80779016,.00010361,97.2838,228.1281,97.2825,236.8151,0,U,69658,999,296,.36066521E-3,.69375E-3,0
STARLINK-37229,2026-143L,2026-07-03T10:00:08.000064,15.80786442,.00013617,97.2830,228.1090,81.0407,206.3401,0,U,69659,999,301,.37397727E-3,.71989E-3,0
STARLINK-37556,2026-143M,2026-07-03T10:00:08.000064,15.80794610,.00010481,97.2832,228.1121,94.3529,203.5227,0,U,69660,999,301,.1489933E-3,.28462E-3,0
STARLINK-37867,2026-143N,2026-07-03T10:00:08.000064,15.80775504,.00012203,97.2834,228.1334,106.8450,240.0744,0,U,69661,999,297,.40626144E-3,.78232E-3,0
STARLINK-37852,2026-143P,2026-07-03T10:00:08.000064,15.80786282,.00009381,97.2836,228.1139,88.6306,212.2877,0,U,69662,999,297,.34735036E-3,.66811E-3,0
STARLINK-37554,2026-143Q,2026-07-03T10:00:08.000064,15.80788639,.00012113,97.2838,228.1300,91.4844,247.6019,0,U,69663,999,301,.32521168E-3,.6252E-3,0
STARLINK-37830,2026-143R,2026-07-03T10:00:08.000064,15.80772806,.00006889,97.2836,228.1154,97.9624,207.5820,0,U,69664,999,296,.47381999E-3,.9139E-3,0
STARLINK-37837,2026-143S,2026-07-03T10:00:08.000064,15.80792177,.00007022,97.2842,228.1308,95.5985,247.2733,0,U,69665,999,297,.28634058E-3,.54991E-3,0
STARLINK-37943,2026-143T,2026-07-03T10:00:08.000064,15.80784578,.0001363,97.2833,228.1269,114.6443,217.9794,0,U,69666,999,297,.31749939E-3,.61013E-3,0
STARLINK-37941,2026-143U,2026-07-03T10:00:08.000064,15.80778142,.00010929,97.2835,228.1235,103.9881,220.4564,0,U,69667,999,297,.35799478E-3,.68854E-3,0
STARLINK-37930,2026-143V,2026-07-03T10:00:08.000064,15.80774749,.00008226,97.2835,228.1261,110.3196,220.1587,0,U,69668,999,296,.38221113E-3,.73549E-3,0
STARLINK-37945,2026-143W,2026-07-03T10:00:08.000064,15.80791522,.00008557,97.2835,228.1303,88.1341,252.2899,0,U,69669,999,297,.28675921E-3,.5507E-3,0
STARLINK-37948,2026-143X,2026-07-03T10:00:08.000064,15.77257958,.000153,97.2842,228.1646,85.2887,331.8519,0,U,69670,999,297,-.1730978E-1,-.2431947E-1,0
